{"herdMark":"","ownerName":"Blood Sweat & Food Farms, LLC","farmName":"Aryn Young","address":{"street":"P.O. Box 2311","city":"Homer","state":"AK","zip":"99603"},"phone":"9074350551"}
{"herdMark":"","ownerName":"Chestnut Hollow Farm","farmName":"Greg and Kathleen Jensen","address":{"street":"1302 Jensen Rd","city":"Mountain View","state":"AR","zip":"72560"},"phone":"8702137866"}
{"herdMark":"","ownerName":"Henbest Farms","farmName":"Benjamin Henbest","address":{"street":"4237 W American Dr","city":"Fayetteville","state":"AR","zip":"72704"},"phone":"4794227544"}
{"herdMark":"","ownerName":"Flip Flop Farm","farmName":"Zane Willis","address":{"street":"4439 S Calle Encina","city":"Sierra Vista","state":"AZ","zip":"85650"},"phone":"5202344782"}
{"herdMark":"","ownerName":"Golden State Genetics","farmName":"Rachelle Tucker","address":{"street":"1312 N Morgan Rd","city":"Turlock","state":"CA","zip":"95380"},"phone":"2092772509"}
{"herdMark":"","ownerName":"High Mountain Hogs","farmName":"Jamie Willburn","address":{"street":"P.O. Box 35","city":"Mad River","state":"CA","zip":"95552"},"phone":"7074985041"}
{"herdMark":"","ownerName":"Wind Dancer Ranch","farmName":"Lisa Leonard","address":{"street":"8694 State Hwy 16","city":"Brooks","state":"CA","zip":"95606"},"phone":"6506421690"}
{"herdMark":"","ownerName":"Golden Valley Farm, LLC","farmName":"Tom Biedscheid","address":{"street":"2189 Golden Valley Rd","city":"Loveland","state":"CO","zip":"80537"},"phone":"9704305548"}
{"herdMark":"","ownerName":"White Sulphur Farms","farmName":"Lee and Mary Hemmer","address":{"street":"3945 Reynolds Rd","city":"Gainesville","state":"GA","zip":"30507"},"phone":"7705303646"}
{"herdMark":"","ownerName":"Bombei and Sons Showpigs","farmName":"Matt Bombei","address":{"street":"18824 Zephyr Ave","city":"Delta","state":"IA","zip":"52550"},"phone":"6416605741"}
{"herdMark":"","ownerName":"Bruce Kaufman","farmName":"3190 295th St","address":{"street":"Crawfordsville, IA 52621","city":"","state":"","zip":""},"phone":""}
{"herdMark":"","ownerName":"Gibson Show Pigs","farmName":"Jim and Kim Gibson","address":{"street":"2139 Yellow Avenue","city":"Panora","state":"IA","zip":"50216"},"phone":"5152086072"}
{"herdMark":"","ownerName":"TL Maxwell","farmName":"Tim Maxwell","address":{"street":"1444 N Isett Ave","city":"Moscow","state":"IA","zip":"52760"},"phone":"5635064291"}
{"herdMark":"","ownerName":"Brinkmeier Farms","farmName":"Chet Brinkmeier","address":{"street":"11100 W Loran Rd","city":"Pearl City","state":"IL","zip":"61062"},"phone":"8155413546"}
{"herdMark":"","ownerName":"Hi Point Genetics","farmName":"Brent Bolen","address":{"street":"19225 N 2050th St.","city":"Chrisman","state":"IL","zip":"61924"},"phone":"2172692315"}
{"herdMark":"","ownerName":"Iberg Showpigs","farmName":"Keith and Jessica Iberg","address":{"street":"12862 Iberg Rd","city":"Highland","state":"IL","zip":"62249"},"phone":"6182012745"}
{"herdMark":"","ownerName":"Isaac Gingerich","farmName":"816 CR 1850 N","address":{"street":"Sullivan, IL 61951","city":"","state":"","zip":""},"phone":""}
{"herdMark":"","ownerName":"Kevin Marten","farmName":"20325 N 1150th St","address":{"street":"Effingham, IL 62401","city":"","state":"","zip":""},"phone":""}
{"herdMark":"","ownerName":"Miller Livestock","farmName":"Marcus Miller","address":{"street":"27612 E 1200 North Rd","city":"Forrest","state":"IL","zip":"61741"},"phone":"8156749291"}
{"herdMark":"","ownerName":"Quint Harnacke and Family","farmName":"Quint Harnacke","address":{"street":"1620 100th Ave","city":"New Holland","state":"IL","zip":"62671"},"phone":"2174452506"}
{"herdMark":"","ownerName":"Saso Family Farm","farmName":"Donald Saso III","address":{"street":"9413 US Hwy 20","city":"Garden Prairie","state":"IL","zip":"61038"},"phone":"8157034048"}
{"herdMark":"","ownerName":"Showtime Sires","farmName":"Caleb Swenson","address":{"street":"13691 Big Grove Rd","city":"Newark","state":"IL","zip":"60541"},"phone":"8155464241"}
{"herdMark":"","ownerName":"Smith Farms","farmName":"Jeff or Andy Smith","address":{"street":"11602 W Legion Hall Road","city":"Princeville","state":"IL","zip":"61559"},"phone":"3096788336"}
{"herdMark":"","ownerName":"White Show Pigs","farmName":"Dillon White","address":{"street":"1497 Middleton Rd","city":"Jacksonville","state":"IL","zip":"62650"},"phone":"2174739353"}
{"herdMark":"","ownerName":"4J Showstock","farmName":"Michael and Debbie Geiger","address":{"street":"8263 E US 33","city":"Churubusco","state":"IN","zip":"46723"},"phone":"2604108001"}
{"herdMark":"","ownerName":"Beck Purebreds","farmName":"Eric, Brooke, Bryce, and Mayson Beck","address":{"street":"5851 S 525 E","city":"Pierceton","state":"IN","zip":"46562"},"phone":"5745511478"}
{"herdMark":"","ownerName":"BG Show Pigs","farmName":"Ciara Boyer","address":{"street":"10574 N CR 900 E","city":"North Salem","state":"IN","zip":"46165"},"phone":"7653666575"}
{"herdMark":"","ownerName":"Butcher Hollow Farms","farmName":"Rod Butcher","address":{"street":"3686 S 350 E","city":"Bringhurst","state":"IN","zip":"46913"},"phone":"7652024043"}
{"herdMark":"","ownerName":"Chris Ulerick","farmName":"7270 E 800 N","address":{"street":"Twelve Mile, IN 46988","city":"","state":"","zip":""},"phone":""}
{"herdMark":"","ownerName":"Crossroads Genetics","farmName":"Adam Beck","address":{"street":"1196 E CR 1000 S","city":"Clayton","state":"IN","zip":"46118"},"phone":"3176262528"}
{"herdMark":"","ownerName":"D & H Show Stock","farmName":"Andy Howe","address":{"street":"4516 W 950 S","city":"Star City","state":"IN","zip":"46985"},"phone":"5745811106"}
{"herdMark":"","ownerName":"Deck Showpigs","farmName":"Jay Deck","address":{"street":"2800 W. Williams Rd.","city":"Bloomington","state":"IN","zip":"47404"},"phone":"8163608312"}
{"herdMark":"","ownerName":"Don and Laura Apple","farmName":"9840 N 1000 W","address":{"street":"Greenfield, IN 46140","city":"","state":"","zip":""},"phone":""}
{"herdMark":"","ownerName":"Funkhouser Show Pigs","farmName":"Gary Funkhouser","address":{"street":"10605 N St Rd 25","city":"Wingate","state":"IN","zip":"47994"},"phone":"7653070849"}
{"herdMark":"","ownerName":"Golden Acres Farm","farmName":"Doug Millar and Brad Bradshaw","address":{"street":"27947 Darden Road","city":"New Carlisle","state":"IN","zip":"46552"},"phone":"5742206508"}
{"herdMark":"","ownerName":"Harmeyer Homestead","farmName":"Eilish Harmeyer","address":{"street":"3630 W CR 50 N","city":"Connersville","state":"IN","zip":"47331"},"phone":"7653093829"}
{"herdMark":"","ownerName":"Holdcroft Family Showpigs","farmName":"Baxter Holdcroft","address":{"street":"11266 W St. Rd. 26","city":"Dunkirk","state":"IN","zip":"47336"},"phone":"7657179241"}
{"herdMark":"","ownerName":"Holliday Show Pigs","farmName":"Reid Holliday","address":{"street":"6814 N THomas Rd","city":"Wilkinson","state":"IN","zip":"46186"},"phone":"3174986071"}
{"herdMark":"","ownerName":"Kent Brattain and Family Showpigs","farmName":"Kent, Katey Brattain Evans, or Kalen Brattain","address":{"street":"263 S CR 900 W","city":"Greencastle","state":"IN","zip":"46135"},"phone":"7657203094"}
{"herdMark":"","ownerName":"Leach Showpigs","farmName":"Jeremy Leach","address":{"street":"9008 W SR 56","city":"Lexington","state":"IN","zip":"47138"},"phone":"8127012861"}
{"herdMark":"","ownerName":"Maci Scher","farmName":"6370 N 300 W","address":{"street":"Huntington, IN 46750","city":"","state":"","zip":""},"phone":""}
{"herdMark":"","ownerName":"McDermit Genetics","farmName":"George McDermit","address":{"street":"4726 S CR 300 W","city":"Greencastle","state":"IN","zip":"46135"},"phone":"7657190242"}
{"herdMark":"","ownerName":"Megan Stanger","farmName":"15763 Country Road 46","address":{"street":"Goshen, IN 46526","city":"","state":"","zip":""},"phone":""}
{"herdMark":"","ownerName":"Merrill LIvestock","farmName":"Ryan, Amanda, and Wyatt Merrill","address":{"street":"7929 W 875 N","city":"Colfax","state":"IN","zip":"46035"},"phone":"7659780051"}
{"herdMark":"","ownerName":"Porter Livestock","farmName":"Garrett Porter","address":{"street":"4762 N CR 200 W","city":"Greencastle","state":"IN","zip":"46135"},"phone":"7657212291"}
{"herdMark":"","ownerName":"Posey Genetics","farmName":"Gran or Jesse Posey","address":{"street":"650 E CR 400 S","city":"New Castle","state":"IN","zip":"47362"},"phone":"7655246553"}
{"herdMark":"","ownerName":"R n C Showpigs","farmName":"Justin Roland","address":{"street":"3195 N CR 1050 E","city":"Charlottesville","state":"IN","zip":"46117"},"phone":"3174984540"}
{"herdMark":"","ownerName":"RnC ShowPigs","farmName":"Justin Roland","address":{"street":"8465 E 100 N","city":"Greenfield","state":"IN","zip":"46140"},"phone":"3174984540"}
{"herdMark":"","ownerName":"Rudy Glingle Family","farmName":"Rudy Glingle","address":{"street":"26700 CR 54","city":"Nappanee","state":"IN","zip":"46550"},"phone":"5747735960"}
{"herdMark":"","ownerName":"Shaffer Gold Rush","farmName":"Terry Shaffer","address":{"street":"12417 W 875 N","city":"Albany","state":"IN","zip":"47320"},"phone":"7657898349"}
{"herdMark":"","ownerName":"Sugar Creek Genetics","farmName":"Tom Shanafelt","address":{"street":"5610 S 300 W","city":"Trafalgar","state":"IN","zip":"49036"},"phone":"3173452153"}
{"herdMark":"","ownerName":"Taulman Show Pigs","farmName":"Marek Taulman","address":{"street":"6436 W 1600 S","city":"Remington","state":"IN","zip":"47977"},"phone":"7654123464"}
{"herdMark":"","ownerName":"TSC Showpigs","farmName":"Tate S. Coulter","address":{"street":"8301 N Del Co Line Rd","city":"Albany","state":"IN","zip":"47320"},"phone":"7657441592"}
{"herdMark":"","ownerName":"Tumey Farms","farmName":"Kevin Tumey","address":{"street":"7643 W St Rd 26","city":"Rossville","state":"IN","zip":"46065"},"phone":"7654276739"}
{"herdMark":"","ownerName":"Two Dutch Brothers","farmName":"Stan VanEmon","address":{"street":"5323 S 300 W","city":"Berne","state":"IN","zip":"46711"},"phone":"2608490114"}
{"herdMark":"","ownerName":"Weber Farms","farmName":"James Weber","address":{"street":"55366 S CR 1000 E","city":"Kirklin","state":"IN","zip":"46050"},"phone":"7656701550"}
{"herdMark":"","ownerName":"Wehmer Showpigs","farmName":"Chris Wehmer","address":{"street":"5001 Hwy 165","city":"Poseyville","state":"IN","zip":"47633"},"phone":"8128935070"}
{"herdMark":"","ownerName":"Hiben Family Farm","farmName":"Daniel Hiben","address":{"street":"10077 Woodson Rd","city":"Oswego","state":"KS","zip":"67356"},"phone":"6204234451"}
{"herdMark":"","ownerName":"PB Livestock","farmName":"Payke Brown","address":{"street":"2657 Barton Rd","city":"Grantville","state":"KS","zip":"66429"},"phone":"7852203047"}
{"herdMark":"","ownerName":"Hansen's Harvest","farmName":"Josh Hansen","address":{"street":"631 Feltner Steer Rd.","city":"London","state":"KY","zip":"40741"},"phone":"6064017155"}
{"herdMark":"","ownerName":"Leaning Pine Farms, LLC","farmName":"John Bruner","address":{"street":"2285 Stilesville Rd","city":"Science Hill","state":"KY","zip":"42553"},"phone":"6062710582"}
{"herdMark":"","ownerName":"Powell's Farm","farmName":"Bryan Powell","address":{"street":"3556 Madison Lane","city":"Ashland","state":"KY","zip":"41102"},"phone":"6069227050"}
{"herdMark":"","ownerName":"The Bluegrass Farm","farmName":"David Gialdini","address":{"street":"200 Mooreland Dr","city":"Somerset","state":"KY","zip":"42503"},"phone":"6068754571"}
{"herdMark":"","ownerName":"Tract 68 Farms","farmName":"Dennis Morris","address":{"street":"280 Poplar Hill Road","city":"Liberty","state":"KY","zip":"42539"},"phone":"6093512861"}
{"herdMark":"","ownerName":"Stoner Show Pigs","farmName":"Michael Stoner","address":{"street":"5102 Piney Creek Road","city":"Taneytown","state":"MD","zip":"21787"},"phone":"4433980484"}
{"herdMark":"","ownerName":"Stockwell Livestock","farmName":"Mike or Brianna Stockwell","address":{"street":"31342 Swisher St","city":"Dowagiac","state":"MI","zip":"49047"},"phone":"2694620652"}
{"herdMark":"","ownerName":"Auburnview Farms","farmName":"Dan &amp; Trish Wanous","address":{"street":"6212 Major Ave","city":"Glencoe","state":"MN","zip":"55336"},"phone":"3204205632"}
{"herdMark":"","ownerName":"Iggys Piggys","farmName":"42336 Okabena Rd","address":{"street":"Lakefield, MN 56150","city":"","state":"","zip":""},"phone":""}
{"herdMark":"","ownerName":"Harper Heimer","farmName":"Jesse Heimer","address":{"street":"555 Birch Lane","city":"Taylor","state":"MO","zip":"63471"},"phone":"2172570138"}
{"herdMark":"","ownerName":"Henke Livestock","farmName":"Eli Henke","address":{"street":"27545 Hwy Y","city":"Princeton","state":"MO","zip":"64673"},"phone":"6609530803"}
{"herdMark":"","ownerName":"Montgomery Showpigs","farmName":"Luke and Mary Montgomery","address":{"street":"26692 Image Rd","city":"Brookfield","state":"MO","zip":"64628"},"phone":"6603751949"}
{"herdMark":"","ownerName":"Montgomery Tamworths","farmName":"William Montgomery","address":{"street":"10734 Hwy YY","city":"Sumner","state":"MO","zip":"64681"},"phone":"6604124139"}
{"herdMark":"","ownerName":"Porter Pigs","farmName":"Leroy Porter","address":{"street":"62636 Hwy C","city":"California","state":"MO","zip":"65018"},"phone":"5733384351"}
{"herdMark":"","ownerName":"CFG Farms, LLC","farmName":"Colm Gallagher","address":{"street":"1750 Hendrix Rd","city":"Coffeeville","state":"MS","zip":"38922"},"phone":"6025548471"}
{"herdMark":"","ownerName":"Boss Rock Acres","farmName":"Denise Pilat","address":{"street":"1002 John Jones Rd","city":"Bahama","state":"NC","zip":"27503"},"phone":"8304020303"}
{"herdMark":"","ownerName":"Great Valley Farm","farmName":"Johnny M Smith","address":{"street":"318 Arthur Jenkins Lane","city":"Taylorsville","state":"NC","zip":"28681"},"phone":"8282441414"}
{"herdMark":"","ownerName":"Providence Farms","farmName":"Joy Combs","address":{"street":"2569 Huffline Mill Rd","city":"McLeansville","state":"NC","zip":"27301"},"phone":"3367072507"}
{"herdMark":"","ownerName":"Derrick or Darwin Germann","farmName":"15609 73rd St SW","address":{"street":"Rhome, ND 58651","city":"","state":"","zip":""},"phone":""}
{"herdMark":"","ownerName":"Stevenson Show Stock","farmName":"Jamie Stevenson","address":{"street":"1920 Loup River RD","city":"Cairo","state":"NE","zip":"68824"},"phone":"3087501506"}
{"herdMark":"","ownerName":"High Meadows Farm","farmName":"James Hodges, Manager","address":{"street":"P.O. Box 86, 865 Webster Brook Rd","city":"Delhi","state":"NY","zip":"13753"},"phone":"6077462345"}
{"herdMark":"","ownerName":"Brandenburg Showpigs","farmName":"Ryan Brandenburg","address":{"street":"4184 St Rt 121","city":"Greenville","state":"OH","zip":"45331"},"phone":"9374176885"}
{"herdMark":"","ownerName":"Brian Martin and Family","farmName":"Brian Martin","address":{"street":"7354 St. Rt. 121","city":"Greenville","state":"OH","zip":"45331"},"phone":"9374232358"}
{"herdMark":"","ownerName":"Clint High Farms","farmName":"Don Geer","address":{"street":"10700 State Route 73","city":"New Vienna","state":"OH","zip":"45159"},"phone":"9372181353"}
{"herdMark":"","ownerName":"Garlough's Rocky Acres","farmName":"Bill Garlough","address":{"street":"4139 S Scarff Rd","city":"New Carlisle","state":"OH","zip":"45344"},"phone":"9373715309"}
{"herdMark":"","ownerName":"Gus Mitchem","farmName":"14175 Charleston Chillicothe Rd","address":{"street":"South Solon, OH 43153","city":"","state":"","zip":""},"phone":""}
{"herdMark":"","ownerName":"Jake Rhea","farmName":"6284 Township Road 179","address":{"street":"Cardington, OH 43315","city":"","state":"","zip":""},"phone":""}
{"herdMark":"","ownerName":"KFI Showpigs","farmName":"Greg Kaffenbarger","address":{"street":"9325 Troy Rd","city":"New Carlisle","state":"OH","zip":"45344"},"phone":"9377650964"}
{"herdMark":"","ownerName":"Lance and Mitchell Westcamp","farmName":"282 Green Ave","address":{"street":"Groveport, OH 43125","city":"","state":"","zip":""},"phone":""}
{"herdMark":"","ownerName":"Lucas Family Showpigs","farmName":"Grace Lucas","address":{"street":"513 Crain Rd","city":"WEst Portsmouth","state":"OH","zip":"45663"},"phone":"7407271545"}
{"herdMark":"","ownerName":"Montoya Show Pigs","farmName":"Bailey Montoya","address":{"street":"15606 Chicken Bristle Rd","city":"Farmersville","state":"OH","zip":"45325"},"phone":"9376944246"}
{"herdMark":"","ownerName":"MSP Farms - Montoya Show Pigs","farmName":"Luciano Montoya","address":{"street":"15606 Chicken Bristle Rd","city":"Farmersville","state":"OH","zip":"45325"},"phone":"9373131660"}
{"herdMark":"","ownerName":"Overstake Show Pigs","farmName":"Dennis Overstake","address":{"street":"5551 Franklin Rd","city":"Hillsboro","state":"OH","zip":"45133"},"phone":"9377630792"}
{"herdMark":"","ownerName":"Paul Morrison Family","farmName":"4070 Hollansburg-Arcanum Rd","address":{"street":"Greenville, OH 45331","city":"","state":"","zip":""},"phone":""}
{"herdMark":"","ownerName":"Rhyan Eichhorn","farmName":"4590 Casstown Sidney Rd","address":{"street":"Troy, OH 45373","city":"","state":"","zip":""},"phone":""}
{"herdMark":"","ownerName":"SDA Sow Pigs","farmName":"Seth Abel and Danielle Small","address":{"street":"6297 Johnstown Utica Rd","city":"Johnstown","state":"OH","zip":"43031"},"phone":"6142088192"}
{"herdMark":"","ownerName":"TABU Genetics","farmName":"Christy Montoya","address":{"street":"15606 Chicken Bristle Rd","city":"Farmersville","state":"OH","zip":"45345"},"phone":"9376944246"}
{"herdMark":"","ownerName":"Wolford Show Pigs","farmName":"Jessica Wolford","address":{"street":"6150 Mount Vernon Rd","city":"Newark","state":"OH","zip":"43055"},"phone":"7406418972"}
{"herdMark":"","ownerName":"Bacon Acres Farm","farmName":"Bill and Karen Wehlage","address":{"street":"36251 S 565 Rd","city":"Jay","state":"OK","zip":"74346"},"phone":"5806959402"}
{"herdMark":"","ownerName":"Cedar Farm","farmName":"James Shaw","address":{"street":"6271 S. 209 W Ave","city":"Sand Springs","state":"OK","zip":"74063"},"phone":"9182242566"}
{"herdMark":"","ownerName":"Freedom Farms","farmName":"Joe Hampton","address":{"street":"5285 Creager Road","city":"Mounds","state":"OK","zip":"74047"},"phone":"4052069351"}
{"herdMark":"","ownerName":"The Ohse Homestead LLC","farmName":"Donald and Leah Ohse","address":{"street":"910619 S Donna Jean Lane","city":"Wellston","state":"OK","zip":"74881"},"phone":"4059714816"}
{"herdMark":"","ownerName":"Seven Mile Show Stock","farmName":"Brian Roth","address":{"street":"34255 Seven Mile Lane SE","city":"Albany","state":"OR","zip":"97322"},"phone":"5419792961"}
{"herdMark":"","ownerName":"Benner Homestead Farm","farmName":"Heidi Benner","address":{"street":"230 Benner Rd","city":"Gettysburg","state":"PA","zip":"17325"},"phone":"7177526015"}
{"herdMark":"","ownerName":"Still Water Farms","farmName":"Jordan Bain","address":{"street":"2456 Mason Grissom Rd","city":"Rock Island","state":"TN","zip":"38581"},"phone":"9317430733"}
{"herdMark":"","ownerName":"Aaron Cummins","farmName":"1286 Tidwell Road","address":{"street":"Weatherford, TX 76087","city":"","state":"","zip":""},"phone":""}
{"herdMark":"","ownerName":"Harris Farms","farmName":"David and Debbie Harris","address":{"street":"2013 Hatfield Rd","city":"Pearland","state":"TX","zip":"77581"},"phone":"2812534948"}
{"herdMark":"","ownerName":"Bent Fox Farm","farmName":"Angela Dribben","address":{"street":"3536 Bent Road","city":"Meadows of Dan","state":"VA","zip":"24120"},"phone":"2769525258"}
{"herdMark":"","ownerName":"Triple B Farms and Show Pigs","farmName":"Scott Buchanan","address":{"street":"163 Hildebrand Circle","city":"Staunton","state":"VA","zip":"24401"},"phone":"5402410517"}
{"herdMark":"","ownerName":"Clothier Farms North","farmName":"Pete Clothier","address":{"street":"E10038 Harmon Road","city":"Baraboo","state":"WI","zip":"53913"},"phone":"6082901223"}
{"herdMark":"","ownerName":"Clothier Showpigs","farmName":"Jon Clothier","address":{"street":"8106 S Cty Rd J","city":"Clinton","state":"WI","zip":"53525"},"phone":"6082907032"}
{"herdMark":"","ownerName":"Jamie Goplin","farmName":"N35953 County Road S","address":{"street":"Whitehall, WI 54773","city":"","state":"","zip":""},"phone":""}
{"herdMark":"","ownerName":"Whistleberry Farm","farmName":"Nila Robinson","address":{"street":"N 4807 Kettner Road","city":"Shiocton","state":"WI","zip":"54170"},"phone":"9205403900"}
{"herdMark":"","ownerName":"Wilderness Valley Stock Farm","farmName":"Kim Wilcox","address":{"street":"S 1317 Conty Road Y","city":"Wonewoc","state":"WI","zip":"53968"},"phone":"6084643181"}
